start=new Date('2022-10-13T00:00:00.000Z').valueOf();
sats=[{"TLE_LINE2":"2 53839  53.2175 140.6437 0001432  91.9557 158.4852 15.73204219  1305","BSTAR":"-0.00000090521000","ELEMENT_SET_NO":"999","CLASSIFICATION_TYPE":"U","INCLINATION":"53.2175","REV_AT_EPOCH":"130","ECCENTRICITY":"0.00014320","TIME_SYSTEM":"UTC","SITE":"AFETR","PERIOD":"91.533","MEAN_MOTION_DOT":"-0.00000747","CENTER_NAME":"EARTH","FILE":"3606891","COUNTRY_CODE":"US","APOAPSIS":"350.712","DECAY_DATE":null,"REF_FRAME":"TEME","EPOCH":"2022-10-12T22:00:00.999936","OBJECT_TYPE":"PAYLOAD","GP_ID":"214924718","MEAN_MOTION_DDOT":"0.0000000000000","OBJECT_ID":"2022-114X","TLE_LINE1":"1 53839U 22114X   22285.91667824 -.00000747  00000-0 -90521-6 0  9993","RCS_SIZE":"LARGE","MEAN_ANOMALY":"158.4852","MEAN_ELEMENT_THEORY":"SGP4","ARG_OF_PERICENTER":"91.9557","OBJECT_NAME":"STARLINK-4784","NORAD_CAT_ID":"53839","EPHEMERIS_TYPE":"0","RA_OF_ASC_NODE":"140.6437","LAUNCH_DATE":"2022-09-19","SEMIMAJOR_AXIS":"6727.883","PERIAPSIS":"348.785","MEAN_MOTION":"15.73204219"},{"MEAN_ANOMALY":"145.5134","MEAN_ELEMENT_THEORY":"SGP4","MEAN_MOTION_DDOT":"0.0000000000000","RCS_SIZE":"LARGE","TLE_LINE1":"1 53840U 22114Y   22285.91667824 -.00000745  00000-0 -88893-6 0  9992","OBJECT_ID":"2022-114Y","GP_ID":"214925048","OBJECT_TYPE":"PAYLOAD","REF_FRAME":"TEME","EPOCH":"2022-10-12T22:00:00.999936","MEAN_MOTION":"15.73204212","LAUNCH_DATE":"2022-09-19","PERIAPSIS":"348.772","SEMIMAJOR_AXIS":"6727.883","EPHEMERIS_TYPE":"0","NORAD_CAT_ID":"53840","RA_OF_ASC_NODE":"140.6382","OBJECT_NAME":"STARLINK-4766","ARG_OF_PERICENTER":"107.9080","ECCENTRICITY":"0.00014510","TIME_SYSTEM":"UTC","SITE":"AFETR","INCLINATION":"53.2175","REV_AT_EPOCH":"130","ELEMENT_SET_NO":"999","CLASSIFICATION_TYPE":"U","TLE_LINE2":"2 53840  53.2175 140.6382 0001451 107.9080 145.5134 15.73204212  1309","BSTAR":"-0.00000088893000","APOAPSIS":"350.724","DECAY_DATE":null,"FILE":"3606891","COUNTRY_CODE":"US","CENTER_NAME":"EARTH","PERIOD":"91.533","MEAN_MOTION_DOT":"-0.00000745"},{"RA_OF_ASC_NODE":"140.6401","NORAD_CAT_ID":"53841","EPHEMERIS_TYPE":"0","ARG_OF_PERICENTER":"93.1481","OBJECT_NAME":"STARLINK-4750","MEAN_MOTION":"15.73204239","SEMIMAJOR_AXIS":"6727.883","PERIAPSIS":"348.929","LAUNCH_DATE":"2022-09-19","OBJECT_TYPE":"PAYLOAD","GP_ID":"214890715","EPOCH":"2022-10-12T22:00:00.999936","REF_FRAME":"TEME","MEAN_ELEMENT_THEORY":"SGP4","MEAN_ANOMALY":"159.0810","OBJECT_ID":"2022-114Z","TLE_LINE1":"1 53841U 22114Z   22285.91667824 -.00000795  00000-0 -12502-5 0  9991","RCS_SIZE":"LARGE","MEAN_MOTION_DDOT":"0.0000000000000","CENTER_NAME":"EARTH","MEAN_MOTION_DOT":"-0.00000795","PERIOD":"91.533","DECAY_DATE":null,"APOAPSIS":"350.568","COUNTRY_CODE":"US","FILE":"3606526","CLASSIFICATION_TYPE":"U","ELEMENT_SET_NO":"999","BSTAR":"-0.00000125020000","TLE_LINE2":"2 53841  53.2175 140.6401 0001218  93.1481 159.0810 15.73204239  4330","SITE":"AFETR","TIME_SYSTEM":"UTC","ECCENTRICITY":"0.00012180","REV_AT_EPOCH":"433","INCLINATION":"53.2175"},{"TLE_LINE2":"2 53842  53.2175 140.6358 0000895  82.0868 172.5268 15.73204184  4334","BSTAR":"-0.00000114070000","ELEMENT_SET_NO":"999","CLASSIFICATION_TYPE":"U","INCLINATION":"53.2175","REV_AT_EPOCH":"433","TIME_SYSTEM":"UTC","ECCENTRICITY":"0.00008950","SITE":"AFETR","PERIOD":"91.533","MEAN_MOTION_DOT":"-0.00000779","CENTER_NAME":"EARTH","FILE":"3606526","COUNTRY_CODE":"US","APOAPSIS":"350.350","DECAY_DATE":null,"REF_FRAME":"TEME","EPOCH":"2022-10-12T22:00:00.999936","GP_ID":"214890719","OBJECT_TYPE":"PAYLOAD","MEAN_MOTION_DDOT":"0.0000000000000","RCS_SIZE":"LARGE","OBJECT_ID":"2022-114AA","TLE_LINE1":"1 53842U 22114AA  22285.91667824 -.00000779  00000-0 -11407-5 0  9997","MEAN_ANOMALY":"172.5268","MEAN_ELEMENT_THEORY":"SGP4","OBJECT_NAME":"STARLINK-4754","ARG_OF_PERICENTER":"82.0868","EPHEMERIS_TYPE":"0","NORAD_CAT_ID":"53842","RA_OF_ASC_NODE":"140.6358","LAUNCH_DATE":"2022-09-19","PERIAPSIS":"349.146","SEMIMAJOR_AXIS":"6727.883","MEAN_MOTION":"15.73204184"},{"RA_OF_ASC_NODE":"140.6390","NORAD_CAT_ID":"53843","EPHEMERIS_TYPE":"0","ARG_OF_PERICENTER":"99.7956","OBJECT_NAME":"STARLINK-4769","MEAN_MOTION":"15.73204227","SEMIMAJOR_AXIS":"6727.883","PERIAPSIS":"348.852","LAUNCH_DATE":"2022-09-19","OBJECT_TYPE":"PAYLOAD","GP_ID":"214890745","EPOCH":"2022-10-12T22:00:00.999936","REF_FRAME":"TEME","MEAN_ELEMENT_THEORY":"SGP4","MEAN_ANOMALY":"153.0297","OBJECT_ID":"2022-114AB","TLE_LINE1":"1 53843U 22114AB  22285.91667824 -.00000772  00000-0 -10864-5 0  9997","RCS_SIZE":"LARGE","MEAN_MOTION_DDOT":"0.0000000000000","CENTER_NAME":"EARTH","MEAN_MOTION_DOT":"-0.00000772","PERIOD":"91.533","DECAY_DATE":null,"APOAPSIS":"350.644","COUNTRY_CODE":"US","FILE":"3606519","CLASSIFICATION_TYPE":"U","ELEMENT_SET_NO":"999","TLE_LINE2":"2 53843  53.2175 140.6390 0001332  99.7956 153.0297 15.73204227  4335","BSTAR":"-0.00000108640000","SITE":"AFETR","ECCENTRICITY":"0.00013320","TIME_SYSTEM":"UTC","REV_AT_EPOCH":"433","INCLINATION":"53.2175"},{"ARG_OF_PERICENTER":"93.5295","OBJECT_NAME":"STARLINK-4745","NORAD_CAT_ID":"53844","EPHEMERIS_TYPE":"0","RA_OF_ASC_NODE":"140.6334","LAUNCH_DATE":"2022-09-19","SEMIMAJOR_AXIS":"6727.883","PERIAPSIS":"349.095","MEAN_MOTION":"15.73204274","REF_FRAME":"TEME","EPOCH":"2022-10-12T22:00:00.999936","OBJECT_TYPE":"PAYLOAD","GP_ID":"214891179","MEAN_MOTION_DDOT":"0.0000000000000","TLE_LINE1":"1 53844U 22114AC  22285.91667824 -.00000877  00000-0 -18344-5 0  9995","OBJECT_ID":"2022-114AC","RCS_SIZE":"LARGE","MEAN_ANOMALY":"162.2763","MEAN_ELEMENT_THEORY":"SGP4","PERIOD":"91.533","MEAN_MOTION_DOT":"-0.00000877","CENTER_NAME":"EARTH","FILE":"3606526","COUNTRY_CODE":"US","APOAPSIS":"350.401","DECAY_DATE":null,"BSTAR":"-0.00000183440000","TLE_LINE2":"2 53844  53.2175 140.6334 0000971  93.5295 162.2763 15.73204274  4332","ELEMENT_SET_NO":"999","CLASSIFICATION_TYPE":"U","INCLINATION":"53.2175","REV_AT_EPOCH":"433","TIME_SYSTEM":"UTC","ECCENTRICITY":"0.00009710","SITE":"AFETR"},{"ECCENTRICITY":"0.00012120","TIME_SYSTEM":"UTC","SITE":"AFETR","INCLINATION":"53.2173","REV_AT_EPOCH":"130","ELEMENT_SET_NO":"999","CLASSIFICATION_TYPE":"U","BSTAR":"0.00008993300000","TLE_LINE2":"2 53845  53.2173 140.6366 0001212  86.3638 167.6574 15.73196361  1306","APOAPSIS":"350.586","DECAY_DATE":null,"FILE":"3606891","COUNTRY_CODE":"US","CENTER_NAME":"EARTH","PERIOD":"91.533","MEAN_MOTION_DOT":"0.00012018","MEAN_ANOMALY":"167.6574","MEAN_ELEMENT_THEORY":"SGP4","MEAN_MOTION_DDOT":"0.0000000000000","OBJECT_ID":"2022-114AD","TLE_LINE1":"1 53845U 22114AD  22285.91667824  .00012018  00000-0  89933-4 0  9995","RCS_SIZE":"LARGE","OBJECT_TYPE":"PAYLOAD","GP_ID":"214924462","REF_FRAME":"TEME","EPOCH":"2022-10-12T22:00:00.999936","MEAN_MOTION":"15.73196361","LAUNCH_DATE":"2022-09-19","SEMIMAJOR_AXIS":"6727.906","PERIAPSIS":"348.955","NORAD_CAT_ID":"53845","EPHEMERIS_TYPE":"0","RA_OF_ASC_NODE":"140.6366","ARG_OF_PERICENTER":"86.3638","OBJECT_NAME":"STARLINK-4753"},{"OBJECT_TYPE":"PAYLOAD","GP_ID":"214890720","REF_FRAME":"TEME","EPOCH":"2022-10-12T22:00:00.999936","MEAN_ANOMALY":"141.6395","MEAN_ELEMENT_THEORY":"SGP4","MEAN_MOTION_DDOT":"0.0000000000000","TLE_LINE1":"1 53846U 22114AE  22285.91667824 -.00000816  00000-0 -13998-5 0  9990","OBJECT_ID":"2022-114AE","RCS_SIZE":"LARGE","NORAD_CAT_ID":"53846","EPHEMERIS_TYPE":"0","RA_OF_ASC_NODE":"140.6309","ARG_OF_PERICENTER":"115.3585","OBJECT_NAME":"STARLINK-4746","MEAN_MOTION":"15.73204242","LAUNCH_DATE":"2022-09-19","SEMIMAJOR_AXIS":"6727.883","PERIAPSIS":"348.919","ELEMENT_SET_NO":"999","CLASSIFICATION_TYPE":"U","BSTAR":"-0.00000139980000","TLE_LINE2":"2 53846  53.2175 140.6309 0001233 115.3585 141.6395 15.73204242  4330","TIME_SYSTEM":"UTC","ECCENTRICITY":"0.00012330","SITE":"AFETR","INCLINATION":"53.2175","REV_AT_EPOCH":"433","CENTER_NAME":"EARTH","PERIOD":"91.533","MEAN_MOTION_DOT":"-0.00000816","APOAPSIS":"350.578","DECAY_DATE":null,"FILE":"3606526","COUNTRY_CODE":"US"},{"PERIAPSIS":"348.760","SEMIMAJOR_AXIS":"6727.883","LAUNCH_DATE":"2022-09-19","MEAN_MOTION":"15.73204234","OBJECT_NAME":"STARLINK-4777","ARG_OF_PERICENTER":"99.1089","RA_OF_ASC_NODE":"140.6343","EPHEMERIS_TYPE":"0","NORAD_CAT_ID":"53847","RCS_SIZE":"LARGE","OBJECT_ID":"2022-114AF","TLE_LINE1":"1 53847U 22114AF  22285.91667824 -.00000794  00000-0 -12345-5 0  9991","MEAN_MOTION_DDOT":"0.0000000000000","MEAN_ELEMENT_THEORY":"SGP4","MEAN_ANOMALY":"156.1008","EPOCH":"2022-10-12T22:00:00.999936","REF_FRAME":"TEME","GP_ID":"214891178","OBJECT_TYPE":"PAYLOAD","COUNTRY_CODE":"US","FILE":"3606526","DECAY_DATE":null,"APOAPSIS":"350.736","MEAN_MOTION_DOT":"-0.00000794","PERIOD":"91.533","CENTER_NAME":"EARTH","REV_AT_EPOCH":"433","INCLINATION":"53.2175","SITE":"AFETR","ECCENTRICITY":"0.00014680","TIME_SYSTEM":"UTC","TLE_LINE2":"2 53847  53.2175 140.6343 0001468  99.1089 156.1008 15.73204234  4330","BSTAR":"-0.00000123450000","CLASSIFICATION_TYPE":"U","ELEMENT_SET_NO":"999"},{"PERIAPSIS":"349.058","SEMIMAJOR_AXIS":"6727.883","LAUNCH_DATE":"2022-09-19","MEAN_MOTION":"15.73204252","OBJECT_NAME":"STARLINK-4780","ARG_OF_PERICENTER":"110.8190","RA_OF_ASC_NODE":"140.6286","EPHEMERIS_TYPE":"0","NORAD_CAT_ID":"53848","RCS_SIZE":"LARGE","OBJECT_ID":"2022-114AG","TLE_LINE1":"1 53848U 22114AG  22285.91667824 -.00000850  00000-0 -16442-5 0  9997","MEAN_MOTION_DDOT":"0.0000000000000","MEAN_ELEMENT_THEORY":"SGP4","MEAN_ANOMALY":"147.3712","EPOCH":"2022-10-12T22:00:00.999936","REF_FRAME":"TEME","GP_ID":"214891176","OBJECT_TYPE":"PAYLOAD","COUNTRY_CODE":"US","FILE":"3606526","DECAY_DATE":null,"APOAPSIS":"350.438","MEAN_MOTION_DOT":"-0.00000850","PERIOD":"91.533","CENTER_NAME":"EARTH","REV_AT_EPOCH":"433","INCLINATION":"53.2175","SITE":"AFETR","ECCENTRICITY":"0.00010260","TIME_SYSTEM":"UTC","BSTAR":"-0.00000164420000","TLE_LINE2":"2 53848  53.2175 140.6286 0001026 110.8190 147.3712 15.73204252  4335","CLASSIFICATION_TYPE":"U","ELEMENT_SET_NO":"999"}];
